NORAD_CAT_ID,OBJECT_NAME,OBJECT_TYPE,EPOCH,MEAN_MOTION,ECCENTRICITY,INCLINATION,RA_OF_ASC_NODE,ARG_OF_PERICENTER,MEAN_ANOMALY,BSTAR,MEAN_MOTION_DOT,MEAN_MOTION_DDOT,TLE_LINE0,TLE_LINE1,TLE_LINE2,SEMIMAJOR_AXIS,PERIOD,APOGEE,PERIGEE,DECAYED
53894.0,STARLINK-5043,PAYLOAD,2023-08-20 03:48:48,15.08854257,0.0001594,53.2179,190.4439,98.8818,261.2355,-5.0502e-05,-1.092e-05,0.0,0 STARLINK-5043,1 53894U 22119J   23232.15889620 -.00001092  00000-0 -50502-4 0  9995,2 53894  53.2179 190.4439 0001594  98.8818 261.2355 15.08854257 50485,6917.837,95.437,540.805,538.599,0.0
53894.0,STARLINK-5043,PAYLOAD,2023-08-21 02:04:12,15.08847732,0.0001425,53.2175,186.2835,95.5527,264.5627,1.5877e-05,-3.5e-07,0.0,0 STARLINK-5043,1 53894U 22119J   23233.08625762 -.00000035  00000-0  15877-4 0  9994,2 53894  53.2175 186.2835 0001425  95.5527 264.5627 15.08847732 50622,6917.857,95.437,540.708,538.736,0.0
53894.0,STARLINK-5043,PAYLOAD,2023-08-22 01:55:00,15.08839292,0.000141,53.2162,181.819,92.053,268.0623,-2.7911e-05,-7.32e-06,0.0,0 STARLINK-5043,1 53894U 22119J   23234.07986459 -.00000732  00000-0 -27911-4 0  9994,2 53894  53.2162 181.8190 0001410  92.0530 268.0623 15.08839292 50776,6917.883,95.438,540.723,538.772,0.0
53894.0,STARLINK-5043,PAYLOAD,2023-08-24 06:22:44,15.08837319,0.0001368,53.216,172.0102,100.0975,260.0171,7.6714e-05,9.33e-06,0.0,0 STARLINK-5043,1 53894U 22119J   23236.26578905  .00000933  00000-0  76714-4 0  9996,2 53894  53.2160 172.0102 0001368 100.0975 260.0171 15.08837319 51526,6917.889,95.438,540.7,538.807,0.0
53894.0,STARLINK-5043,PAYLOAD,2023-08-25 04:38:07,15.0883936,0.0001094,53.2165,167.8461,86.6714,273.4403,0.00025687,3.803e-05,0.0,0 STARLINK-5043,1 53894U 22119J   23237.19314405  .00003803  00000-0  25687-3 0  9993,2 53894  53.2165 167.8461 0001094  86.6714 273.4403 15.08839360 51240,6917.882,95.438,540.504,538.991,0.0
53894.0,STARLINK-5043,PAYLOAD,2023-08-25 23:42:45,15.08837275,0.0001687,53.2172,164.2799,125.9836,234.1313,3.8524e-05,3.25e-06,0.0,0 STARLINK-5043,1 53894U 22119J   23237.98803089  .00000325  00000-0  38524-4 0  9992,2 53894  53.2172 164.2799 0001687 125.9836 234.1313 15.08837275 51363,6917.889,95.438,540.921,538.587,0.0
53894.0,STARLINK-5043,PAYLOAD,2023-08-26 04:28:55,15.08841479,0.0001498,53.217,163.3869,111.2967,248.8185,7.0745e-05,8.38e-06,0.0,0 STARLINK-5043,1 53894U 22119J   23238.18674944  .00000838  00000-0  70745-4 0  9991,2 53894  53.2170 163.3869 0001498 111.2967 248.8185 15.08841479 51812,6917.876,95.437,540.777,538.705,0.0
53894.0,STARLINK-5043,PAYLOAD,2023-08-26 18:47:23,15.08840406,0.0001777,53.2182,160.7095,105.6524,254.4664,3.5329e-05,2.74e-06,0.0,0 STARLINK-5043,1 53894U 22119J   23238.78291245  .00000274  00000-0  35329-4 0  9999,2 53894  53.2182 160.7095 0001777 105.6524 254.4664 15.08840406 51907,6917.879,95.438,540.973,538.515,0.0
53894.0,STARLINK-5043,PAYLOAD,2023-08-27 01:08:55,15.08845362,0.0001586,53.2181,159.5222,93.633,266.4843,2.103e-05,4.7e-07,0.0,0 STARLINK-5043,1 53894U 22119J   23239.04786945  .00000047  00000-0  21030-4 0  9997,2 53894  53.2181 159.5222 0001586  93.6330 266.4843 15.08845362 51529,6917.864,95.437,540.826,538.632,0.0
53894.0,STARLINK-5043,PAYLOAD,2023-08-27 04:19:41,15.08848548,0.0001456,53.2168,158.9256,89.4271,270.6888,4.7609e-05,4.7e-06,0.0,0 STARLINK-5043,1 53894U 22119J   23239.18034618  .00000470  00000-0  47609-4 0  9995,2 53894  53.2168 158.9256 0001456  89.4271 270.6888 15.08848548 51960,6917.854,95.437,540.727,538.712,0.0
53894.0,STARLINK-5043,PAYLOAD,2023-08-28 04:10:29,15.08845773,0.0001479,53.2164,154.4652,118.9702,241.1438,1.807e-05,0.0,0.0,0 STARLINK-5043,1 53894U 22119J   23240.17394747 -.00000000  00000-0  18070-4 0  9998,2 53894  53.2164 154.4652 0001479 118.9702 241.1438 15.08845773 51690,6917.863,95.437,540.751,538.705,0.0
53894.0,STARLINK-5043,PAYLOAD,2023-08-28 21:39:43,15.08846527,0.0001499,53.2163,151.1942,89.3712,270.7452,5.7303e-05,6.24e-06,0.0,0 STARLINK-5043,1 53894U 22119J   23240.90258534  .00000624  00000-0  57303-4 0  9995,2 53894  53.2163 151.1942 0001499  89.3712 270.7452 15.08846527 52221,6917.86,95.437,540.762,538.688,0.0
53894.0,STARLINK-5043,PAYLOAD,2023-08-29 00:50:28,15.0886379,0.0001426,53.2163,150.5994,88.9631,271.1525,0.00020128,2.919e-05,0.0,0 STARLINK-5043,1 53894U 22119J   23241.03505003  .00002919  00000-0  20128-3 0  9999,2 53894  53.2163 150.5994 0001426  88.9631 271.1525 15.08863790 51828,6917.808,95.436,540.659,538.686,0.0
53894.0,STARLINK-5043,PAYLOAD,2023-08-29 04:01:14,15.08865059,0.0001501,53.2168,150.0054,91.9348,268.1816,0.00021068,3.069e-05,0.0,0 STARLINK-5043,1 53894U 22119J   23241.16752726  .00003069  00000-0  21068-3 0  9990,2 53894  53.2168 150.0054 0001501  91.9348 268.1816 15.08865059 52266,6917.804,95.436,540.707,538.63,0.0
53894.0,STARLINK-5043,PAYLOAD,2023-08-30 00:41:17,15.08832625,0.0001484,53.2171,146.1374,97.3904,262.7256,-3.7065e-05,-8.78e-06,0.0,0 STARLINK-5043,1 53894U 22119J   23242.02867591 -.00000878  00000-0 -37065-4 0  9995,2 53894  53.2171 146.1374 0001484  97.3904 262.7256 15.08832625 51977,6917.903,95.438,540.795,538.741,0.0
53894.0,STARLINK-5043,PAYLOAD,2023-08-30 10:13:36,15.08835089,0.000167,53.2166,144.356,97.0694,263.0489,-9.5332e-05,-1.805e-05,0.0,0 STARLINK-5043,1 53894U 22119J   23242.42611683 -.00001805  00000-0 -95332-4 0  9990,2 53894  53.2166 144.3560 0001670  97.0694 263.0489 15.08835089 52451,6917.895,95.438,540.916,538.605,0.0
53894.0,STARLINK-5043,PAYLOAD,2023-08-31 02:07:27,15.08847111,0.0001469,53.2165,141.382,97.222,262.894,-0.00011973,-2.193e-05,0.0,0 STARLINK-5043,1 53894U 22119J   23243.08851260 -.00002193  00000-0 -11973-3 0  9999,2 53894  53.2165 141.3820 0001469  97.2220 262.8940 15.08847111 52132,6917.859,95.437,540.74,538.707,0.0
53894.0,STARLINK-5043,PAYLOAD,2023-08-31 03:42:50,15.08853421,0.0001381,53.2166,141.085,99.9455,260.1693,-6.2266e-05,-1.279e-05,0.0,0 STARLINK-5043,1 53894U 22119J   23243.15474715 -.00001279  00000-0 -62266-4 0  9999,2 53894  53.2166 141.0850 0001381  99.9455 260.1693 15.08853421 52143,6917.839,95.437,540.66,538.749,0.0
53894.0,STARLINK-5043,PAYLOAD,2023-09-01 01:58:14,15.08801844,0.0001409,53.2159,136.9261,165.1829,194.9205,0.00059836,9.238e-05,0.0,0 STARLINK-5043,1 53894U 22119J   23244.08211740  .00009238  00000-0  59836-3 0  9998,2 53894  53.2159 136.9261 0001409 165.1829 194.9205 15.08801844 52286,6917.997,95.44,540.837,538.887,0.0
53894.0,STARLINK-5043,PAYLOAD,2023-09-01 09:55:10,15.08830452,0.0001477,53.2169,135.4344,99.2471,260.8688,0.00022588,3.308e-05,0.0,0 STARLINK-5043,1 53894U 22119J   23244.41332037  .00003308  00000-0  22588-3 0  9994,2 53894  53.2169 135.4344 0001477  99.2471 260.8688 15.08830452 52339,6917.91,95.438,540.796,538.753,0.0
53894.0,STARLINK-5043,PAYLOAD,2023-09-01 17:52:06,15.0883183,0.0001241,53.2174,133.9485,103.2864,256.8267,0.00023196,3.405e-05,0.0,0 STARLINK-5043,1 53894U 22119J   23244.74451943  .00003405  00000-0  23196-3 0  9992,2 53894  53.2174 133.9485 0001241 103.2864 256.8267 15.08831830 52806,6917.905,95.438,540.629,538.912,0.0
53894.0,STARLINK-5043,PAYLOAD,2023-09-02 01:49:01,15.08845074,0.0001504,53.2167,132.461,94.4336,265.6828,0.00013346,1.837e-05,0.0,0 STARLINK-5043,1 53894U 22119J   23245.07571368  .00001837  00000-0  13346-3 0  9996,2 53894  53.2167 132.4610 0001504  94.4336 265.6828 15.08845074 52434,6917.865,95.437,540.77,538.689,0.0
53894.0,STARLINK-5043,PAYLOAD,2023-09-02 09:45:58,15.08851669,7.86e-05,53.2178,130.9738,103.9021,256.2059,-0.00050379,-8.299e-05,0.0,0 STARLINK-5043,1 53894U 22119J   23245.40692158 -.00008299  00000-0 -50379-3 0  9992,2 53894  53.2178 130.9738 0000786 103.9021 256.2059 15.08851669 52482,6917.845,95.437,540.253,539.166,0.0
53894.0,STARLINK-5043,PAYLOAD,2023-09-02 16:07:30,15.08835191,0.0001729,53.2168,129.7853,86.4663,273.6527,3.296e-05,2.36e-06,0.0,0 STARLINK-5043,1 53894U 22119J   23245.67188487  .00000236  00000-0  32960-4 0  9994,2 53894  53.2168 129.7853 0001729  86.4663 273.6527 15.08835191 52946,6917.895,95.438,540.956,538.564,0.0
53894.0,STARLINK-5043,PAYLOAD,2023-09-03 09:36:45,15.0884035,0.0001609,53.2153,126.5148,86.2169,273.9007,2.7826e-05,1.55e-06,0.0,0 STARLINK-5043,1 53894U 22119J   23246.40052264  .00000155  00000-0  27826-4 0  9994,2 53894  53.2153 126.5148 0001609  86.2169 273.9007 15.08840350 53050,6917.879,95.438,540.857,538.631,0.0
53894.0,STARLINK-5043,PAYLOAD,2023-09-04 01:30:36,15.08842036,0.0001366,53.2152,123.5403,85.945,274.1698,8.443e-05,1.056e-05,0.0,0 STARLINK-5043,1 53894U 22119J   23247.06291885  .00001056  00000-0  84430-4 0  9996,2 53894  53.2152 123.5403 0001366  85.9450 274.1698 15.08842036 52735,6917.874,95.437,540.684,538.794,0.0
53894.0,STARLINK-5043,PAYLOAD,2023-09-04 11:02:55,15.0883655,0.0001591,53.2153,121.7561,85.7994,274.318,0.0001068,1.412e-05,0.0,0 STARLINK-5043,1 53894U 22119J   23247.46036162  .00001412  00000-0  10680-3 0  9996,2 53894  53.2153 121.7561 0001591  85.7994 274.3180 15.08836550 53218,6917.891,95.438,540.857,538.655,0.0
53894.0,STARLINK-5043,PAYLOAD,2023-09-04 17:24:28,15.08834798,0.0001561,53.2157,120.5671,84.6673,275.4497,7.1852e-05,8.56e-06,0.0,0 STARLINK-5043,1 53894U 22119J   23247.72532467  .00000856  00000-0  71852-4 0  9994,2 53894  53.2157 120.5671 0001561  84.6673 275.4497 15.08834798 52832,6917.896,95.438,540.841,538.681,0.0
53894.0,STARLINK-5043,PAYLOAD,2023-09-05 01:21:23,15.08842167,0.0001547,53.2159,119.0802,86.0587,274.0582,0.00010477,1.38e-05,0.0,0 STARLINK-5043,1 53894U 22119J   23248.05651953  .00001380  00000-0  10477-3 0  9991,2 53894  53.2159 119.0802 0001547  86.0587 274.0582 15.08842167 52881,6917.874,95.437,540.809,538.669,0.0
53894.0,STARLINK-5043,PAYLOAD,2023-09-06 01:12:10,15.08845167,0.0001424,53.2163,114.6199,85.7842,274.3313,3.6959e-05,3e-06,0.0,0 STARLINK-5043,1 53894U 22119J   23249.05011923  .00000300  00000-0  36959-4 0  9994,2 53894  53.2163 114.6199 0001424  85.7842 274.3313 15.08845167 53452,6917.865,95.437,540.715,538.744,0.0
